COSMOS 2426 (717)       
1 29671U 06062B   20044.44789951  .00000031  00000-0  10000-3 0  9994
2 29671  65.0151 272.1378 0019655 170.3663   1.6956  2.12962373102237
COSMOS 2433 (720)       
1 32275U 07052A   20044.22711369 -.00000029  00000-0  10000-3 0  9990
2 32275  65.9414  33.0921 0005442 266.5144 172.2969  2.13104446 95747
COSMOS 2432 (719)       
1 32276U 07052B   20044.18609918 -.00000029  00000-0  10000-3 0  9992
2 32276  65.9549  33.1803 0012425 319.8152  37.9895  2.13103754 95732
COSMOS 2434 (721)       
1 32393U 07065A   20044.44944813  .00000033  00000-0  00000-0 0  9991
2 32393  64.6216 270.7103 0004648  80.2165  56.5888  2.13103026 94451
COSMOS 2436 (723)       
1 32395U 07065C   20044.40794701  .00000033  00000-0  10000-3 0  9992
2 32395  64.6281 270.7590 0015278   5.9005 235.3448  2.13103042 94382
COSMOS 2456 (730)       
1 36111U 09070A   20044.38134933  .00000020  00000-0  00000+0 0  9993
2 36111  64.2174 150.3749 0003160 328.1087 289.8429  2.13102827 79112
COSMOS 2457 (733)       
1 36112U 09070B   20044.48399517  .00000019  00000-0  00000+0 0  9994
2 36112  64.1988 150.2663 0005981 158.5973 301.9768  2.13101458 79123
COSMOS 2459 (731)       
1 36400U 10007A   20044.31821561 -.00000030  00000-0  10000-3 0  9996
2 36400  65.8453  32.0757 0026762 344.4232  19.2563  2.13105223 77475
COSMOS 2461 (735)       
1 36401U 10007B   20044.06932064 -.00000030  00000-0  10000-3 0  9990
2 36401  65.8383  32.0546 0005039  44.1556  38.0964  2.13102052 77461
COSMOS 2460 (732)       
1 36402U 10007C   20044.45125600 -.00000030  00000-0  10000-3 0  9994
2 36402  65.8285  32.0026 0002718 281.4508 133.1855  2.13101487 77478
COSMOS 2464 (736)       
1 37139U 10041C   20044.22003677  .00000034  00000-0  00000+0 0  9992
2 37139  64.2216 270.2193 0027680  13.0221 172.3214  2.13100769 73539
COSMOS 2474 (742)       
1 37829U 11055A   20044.23227531  .00000023  00000-0  00000-0 0  9991
2 37829  64.5372 151.3511 0008600 242.2248 116.6917  2.13101927 65102
COSMOS 2476 (744)       
1 37867U 11064A   20044.51240307  .00000021  00000-0  00000-0 0  9998
2 37867  64.5188 151.3886 0018536 235.9053  24.1075  2.13101895 64466
COSMOS 2477 (745)       
1 37868U 11064B   20044.40520164  .00000022  00000-0  00000-0 0  9990
2 37868  64.5259 151.4467 0016291 236.9048 119.4371  2.13101770 64417
COSMOS 2475 (743)       
1 37869U 11064C   20044.41089723  .00000022  00000-0  00000-0 0  9993
2 37869  64.5322 151.4476 0020098 260.6346  57.3722  2.13101907 64427
COSMOS 2485 (747)       
1 39155U 13019A   20044.44863213  .00000022  00000-0  00000+0 0  9991
2 39155  64.6858 151.6324 0019167 231.3397  24.3828  2.13101883 52939
COSMOS 2492 (754)       
1 39620U 14012A   20044.33323142 -.00000031  00000-0  10000-3 0  9998
2 39620  65.7191  31.8077 0015773 318.4792 243.8132  2.13103400 45886
COSMOS 2500 (755)       
1 40001U 14032A   20044.25309639 -.00000031  00000-0  00000-0 0  9997
2 40001  65.6608  31.7345 0007548 227.2642 134.3722  2.13102649 44109
COSMOS 2501 (702K)      
1 40315U 14075A   20044.38555852  .00000031  00000-0  00000+0 0  9994
2 40315  63.9385 271.2068 0014931 206.9690  52.2607  2.13098550 40509
COSMOS 2514 (751)       
1 41330U 16008A   20044.62798499 -.00000031  00000-0  00000-0 0  9995
2 41330  65.4623  31.6253 0011263 228.3449 243.0811  2.13103053 31274
COSMOS 2516 (753)       
1 41554U 16032A   20044.32709523  .00000032  00000-0  00000-0 0  9997
2 41554  64.1601 271.2451 0010664 218.7330 272.5437  2.13101857 28875
COSMOS 2522 (752)       
1 42939U 17055A   20044.57683574  .00000031  00000-0  00000-0 0  9994
2 42939  64.3929 271.3816 0005777 255.8024 293.6163  2.13102066 18631
COSMOS 2527 (756)       
1 43508U 18053A   20044.28901675  .00000023  00000-0  00000-0 0  9990
2 43508  64.8504 151.4598 0006781 224.6521 135.5873  2.13102609 12926
COSMOS 2529 (757)       
1 43687U 18086A   20044.38660521  .00000032  00000-0  00000+0 0  9996
2 43687  64.6112 271.4736 0008802 282.1122  76.9996  2.13102066  9934
COSMOS 2534 (758)       
1 44299U 19030A   20044.37062529  .00000032  00000-0  00000-0 0  9990
2 44299  64.6764 271.2768 0012502 298.6673 183.2868  2.13101976  5581
